BEIDOU-G1---------------
1 36287U 10001A   19072.42667148 -.00000289  00000-0  00000+0 0  9994
2 36287   1.5149  20.3731 0002361 166.6509 277.3607  1.00271172 33570
BEIDOU-G3---------------
1 36590U 10024A   19072.55828515 -.00000145  00000-0  00000+0 0  9998
2 36590   1.5485  35.3559 0000931  23.9935  32.5423  1.00271698 32189
BEIDOU-IGSO-1-----------
1 36828U 10036A   19071.87809890 -.00000142  00000-0  10000-3 0  9996
2 36828  54.1507 187.3589 0077054 232.5409 183.7996  1.00294097 31616
BEIDOU-G4---------------
1 37210U 10057A   19072.50247946 -.00000118  00000-0  00000+0 0  9992
2 37210   0.9726  54.1868 0003883 189.8727 267.6408  1.00273835 30684
BEIDOU-IGSO-2-----------
1 37256U 10068A   19072.23654221 -.00000192  00000-0  10000-3 0  9999
2 37256  52.2258 303.7983 0064355 203.7338 224.1584  1.00301556 30203
BEIDOU-IGSO-3-----------
1 37384U 11013A   19072.73317015 -.00000150  00000-0  10000-3 0  9998
2 37384  58.6499  66.3315 0041046 209.5905 278.7494  1.00283668 29081
BEIDOU-IGSO-4-----------
1 37763U 11038A   19072.77715998 -.00000090  00000-0  10000-3 0  9995
2 37763  54.4424 189.7584 0058864 221.3818 135.4974  1.00267402 28048
BEIDOU-IGSO-5-----------
1 37948U 11073A   19071.90198377 -.00000136  00000-0  10000-3 0  9990
2 37948  52.3041 303.3482 0056012 208.1797  79.4319  1.00275718 26797
BEIDOU-G5---------------
1 38091U 12008A   19072.19514742  .00000051  00000-0  00000+0 0  9999
2 38091   1.9353  68.4847 0004988 291.6442 299.3432  1.00273565 25871
BEIDOU-M3---------------
1 38250U 12018A   19072.38069816 -.00000043  00000-0  10000-3 0  9992
2 38250  56.5914  32.9829 0023087 241.5379 298.1419  1.86233005 46882
BEIDOU-M4---------------
1 38251U 12018B   19072.75752757 -.00000044  00000-0  10000-3 0  9998
2 38251  56.5254  32.3668 0027570 236.3940 263.6472  1.86233631 46894
BEIDOU-M6---------------
1 38775U 12050B   19072.25580348  .00000004  00000-0  00000+0 0  9995
2 38775  54.9317 151.8889 0022220 244.4127 117.0132  1.86232169 44262
BEIDOU-G6---------------
1 38953U 12059A   19072.55907028 -.00000180  00000-0  00000+0 0  9999
2 38953   1.6637  83.0704 0006640 225.5754 147.4115  1.00268823 23458
BEIDOU-I1-S-------------
1 40549U 15019A   19071.66811841 -.00000172  00000-0  00000+0 0  9991
2 40549  53.6919 326.5223 0037352 189.4752 351.2799  1.00274038 14473
BEIDOU-3-M1-------------
1 40748U 15037A   19072.45848406 -.00000046  00000-0  00000+0 0  9997
2 40748  55.7975  31.9576 0009444 283.3343 283.8027  1.86231321 24712
BEIDOU-3-M2-------------
1 40749U 15037B   19072.30802322 -.00000046  00000-0  00000+0 0  9999
2 40749  55.8004  31.9529 0008126 300.4573 281.4318  1.86234478 24709
BEIDOU-I2-S-------------
1 40938U 15053A   19072.07230162 -.00000105  00000-0  00000+0 0  9994
2 40938  53.3013 289.4884 0047190 179.9257 182.5801  1.00286467 12760
BEIDOU-M3-S-------------
1 41315U 16006A   19072.05507793  .00000005  00000-0  00000+0 0  9996
2 41315  55.1138 152.2300 0003239 245.6707 180.9795  1.86232029 21184
BEIDOU-IGSO-6-----------
1 41434U 16021A   19071.97387178 -.00000118  00000-0  00000-0 0  9995
2 41434  56.3986  65.4796 0034179 202.1111 349.8494  1.00269285 10885
BEIDOU-G7---------------
1 41586U 16037A   19072.19974132 -.00000359  00000-0  00000+0 0  9993
2 41586   0.7871  28.9635 0009231   7.7455 316.2903  1.00272835 10187
BEIDOU-3-M1-------------
1 43001U 17069A   19071.95382700  .00000006  00000-0  00000+0 0  9998
2 43001  55.0860 151.7409 0009546 281.6478   9.4694  1.86231769  9184
BEIDOU-3-M2-------------
1 43002U 17069B   19072.45170957  .00000003  00000-0  00000+0 0  9991
2 43002  55.0859 151.7609 0009057 302.0011   7.3658  1.86231544  9181
BEIDOU-3-M3-------------
1 43107U 18003A   19071.74479153 -.00000046  00000-0  00000+0 0  9995
2 43107  55.2181  33.4470 0004519   0.3995   0.7384  1.86232749  7949
BEIDOU-3-M4-------------
1 43108U 18003B   19071.67788160 -.00000046  00000-0  00000+0 0  9999
2 43108  55.2106  33.4434 0004518 254.5060 106.8406  1.86232812  7946
BEIDOU-3-M5-------------
1 43207U 18018A   19071.04994521  .00000011  00000-0  00000-0 0  9998
2 43207  55.0462 151.9264 0006609 321.6759  38.3350  1.86231637  7312
BEIDOU-3-M6-------------
1 43208U 18018B   19072.19060883  .00000004  00000-0  00000+0 0  9992
2 43208  55.0456 151.8925 0008513 292.0461  67.9178  1.86231846  7336
BEIDOU-3-M7-------------
1 43245U 18029A   19072.41393505 -.00000048  00000-0  00000+0 0  9999
2 43245  55.1812  31.2497 0002444 296.5828  63.0160  1.86232874  6487
BEIDOU-3-M8-------------
1 43246U 18029B   19072.71166336 -.00000049  00000-0  10000-3 0  9999
2 43246  55.1792  31.2721 0006100 320.6719 284.0538  1.86233242  6480
BEIDOU-IGSO-7-----------
1 43539U 18057A   19071.99613547 -.00000133  00000-0  00000+0 0  9994
2 43539  55.0410 186.5095 0022063 182.2901 271.7517  1.00257527  2552
BEIDOU-3-M9-------------
1 43581U 18062A   19072.04366500  .00000051  00000-0  00000+0 0  9996
2 43581  54.8376 273.0295 0001464 279.8603  86.4934  1.86231676  4226
BEIDOU-3-M10------------
1 43582U 18062B   19071.83254932  .00000050  00000-0  00000+0 0  9997
2 43582  54.8359 273.0251 0004915   7.3073 307.9273  1.86232078  4212
BEIDOU-3-M11------------
1 43602U 18067A   19071.84491690  .00000052  00000-0  00000+0 0  9992
2 43602  54.9001 271.5433 0005844 353.7228  13.5065  1.86231561  3716
BEIDOU-3-M12------------
1 43603U 18067B   19072.49089156  .00000056  00000-0  00000+0 0  9999
2 43603  54.8964 271.4912 0003355 348.5954   2.4050  1.86231481  3732
BEIDOU-3-M13------------
1 43622U 18072A   19072.35989369  .00000003  00000-0  00000+0 0  9998
2 43622  55.0068 151.4830 0006431 277.2607  16.0782  1.86231577  3243
BEIDOU-3-M14------------
1 43623U 18072B   19071.87766679  .00000006  00000-0  00000+0 0  9995
2 43623  55.0085 151.4887 0005125 303.0530 117.0934  1.86231618  3244
BEIDOU-3-M15------------
1 43647U 18078A   19071.76528860 -.00000048  00000-0  10000-3 0  9995
2 43647  55.0726  31.5346 0008375 324.4387 275.5659  1.86232925  2758
BEIDOU-3-M16------------
1 43648U 18078B   19072.61481400 -.00000048  00000-0  10000-3 0  9999
2 43648  55.0689  31.5147 0005982 329.1659  30.2352  1.86232600  2779
BEIDOU-3-G1-------------
1 43683U 18085A   19072.85837660 -.00000253  00000-0  00000+0 0  9998
2 43683   2.7964 271.5175 0001226  59.0920 294.1502  1.00272737  1461
BEIDOU-3-M17------------
1 43706U 18093A   19072.71371030  .00000055  00000-0  00000+0 0  9991
2 43706  54.9147 272.8055 0007604 260.4685  60.2612  1.86231675  2120
BEIDOU-3-M18------------
1 43707U 18093B   19072.03842089  .00000052  00000-0  00000+0 0  9991
2 43707  54.9164 272.8184 0006867 289.5379  28.5745  1.86231900  2119